{"type": "FeatureCollection", "features": [ {"type": "Feature", "properties": {"norad_id": 41785, "name": "ALSAT 1B", "group": "resource", "lat": -66.2416445084833, "lon": 24.156654464208973, "alt_km": 668.1448364950056, "timestamp": "2025-12-20T14:38:01.615939+00:00", "meta": {"OBJECT_NAME": "ALSAT 1B", "OBJECT_ID": "2016-059C", "EPOCH": "2025-12-20T06:47:00.627360", "MEAN_MOTION": 14.72084017, "ECCENTRICITY": 0.00107915, "INCLINATION": 97.7806, "RA_OF_ASC_NODE": 5.7472, "ARG_OF_PERICENTER": 82.2307, "MEAN_ANOMALY": 278.0126, "EPHEMERIS_TYPE": 0, "CLASSIFICATION_TYPE": "U", "NORAD_CAT_ID": 41785, "ELEMENT_SET_NO": 999, "REV_AT_EPOCH": 49425, "BSTAR": 0.00010895874, "MEAN_MOTION_DOT": 6.39e-06, "MEAN_MOTION_DDOT": 0}, "tle": {"line1": "1 41785U 16059C   25354.28264615  .00000639  00000+0  10896-3 0  9993", "line2": "2 41785  97.7806   5.7472 0010791  82.2307 278.0126 14.72084017494253"}}, "geometry": {"type": "Point", "coordinates": [24.156654464208973, -66.2416445084833]}}, {"type": "Feature", "properties": {"norad_id": 41787, "name": "PATHFINDER 1", "group": "resource", "lat": -56.0725871342936, "lon": 165.2393410162239, "alt_km": 697.7059739040205, "timestamp": "2025-12-20T14:38:01.615949+00:00", "meta": {"OBJECT_NAME": "PATHFINDER 1", "OBJECT_ID": "2016-059E", "EPOCH": "2025-12-19T22:49:46.698816", "MEAN_MOTION": 14.67332832, "ECCENTRICITY": 0.0029853, "INCLINATION": 97.8135, "RA_OF_ASC_NODE": 356.3902, "ARG_OF_PERICENTER": 59.2562, "MEAN_ANOMALY": 301.1577, "EPHEMERIS_TYPE": 0, "CLASSIFICATION_TYPE": "U", "NORAD_CAT_ID": 41787, "ELEMENT_SET_NO": 999, "REV_AT_EPOCH": 49342, "BSTAR": 0.0001042, "MEAN_MOTION_DOT": 5.46e-06, "MEAN_MOTION_DDOT": 0}, "tle": {"line1": "1 41787U 16059E   25353.95123494  .00000546  00000+0  10420-3 0  9997", "line2": "2 41787  97.8135 356.3902 0029853  59.2562 301.1577 14.67332832493421"}}, "geometry": {"type": "Point", "coordinates": [165.2393410162239, -56.0725871342936]}}, {"type": "Feature", "properties": {"norad_id": 41790, "name": "SCATSAT 1", "group": "resource", "lat": -18.98712415544718, "lon": -131.44671891978652, "alt_km": 641.5840790758066, "timestamp": "2025-12-20T14:38:01.615959+00:00", "meta": {"OBJECT_NAME": "SCATSAT 1", "OBJECT_ID": "2016-059H", "EPOCH": "2025-12-20T03:59:58.946208", "MEAN_MOTION": 14.78958781, "ECCENTRICITY": 0.00564467, "INCLINATION": 98.1453, "RA_OF_ASC_NODE": 50.9294, "ARG_OF_PERICENTER": 104.5786, "MEAN_ANOMALY": 256.1694, "EPHEMERIS_TYPE": 0, "CLASSIFICATION_TYPE": "U", "NORAD_CAT_ID": 41790, "ELEMENT_SET_NO": 999, "REV_AT_EPOCH": 7512, "BSTAR": 0.00013990591, "MEAN_MOTION_DOT": 1.004e-05, "MEAN_MOTION_DDOT": 0}, "tle": {"line1": "1 41790U 16059H   25354.16665447  .00001004  00000+0  13991-3 0  9990", "line2": "2 41790  98.1453  50.9294 0056446 104.5786 256.1694 14.78958781 75124"}}, "geometry": {"type": "Point", "coordinates": [-131.44671891978652, -18.98712415544718]}}, {"type": "Feature", "properties": {"norad_id": 41875, "name": "GOKTURK 1A", "group": "resource", "lat": -5.726425098784498, "lon": 66.04704155291371, "alt_km": 688.1389674804341, "timestamp": "2025-12-20T14:38:01.615969+00:00", "meta": {"OBJECT_NAME": "GOKTURK 1A", "OBJECT_ID": "2016-073A", "EPOCH": "2025-12-20T07:13:15.852288", "MEAN_MOTION": 14.62788419, "ECCENTRICITY": 0.0001267, "INCLINATION": 98.1435, "RA_OF_ASC_NODE": 246.5651, "ARG_OF_PERICENTER": 80.4594, "MEAN_ANOMALY": 279.6751, "EPHEMERIS_TYPE": 0, "CLASSIFICATION_TYPE": "U", "NORAD_CAT_ID": 41875, "ELEMENT_SET_NO": 999, "REV_AT_EPOCH": 48267, "BSTAR": 0.00011579242, "MEAN_MOTION_DOT": 5.44e-06, "MEAN_MOTION_DDOT": 0}, "tle": {"line1": "1 41875U 16073A   25354.30087792  .00000544  00000+0  11579-3 0  9995", "line2": "2 41875  98.1435 246.5651 0001267  80.4594 279.6751 14.62788419482676"}}, "geometry": {"type": "Point", "coordinates": [66.04704155291371, -5.726425098784498]}}, {"type": "Feature", "properties": {"norad_id": 41877, "name": "RESOURCESAT-2A", "group": "resource", "lat": 29.79044867488357, "lon": -110.50646476702036, "alt_km": 818.0066817193801, "timestamp": "2025-12-20T14:38:01.615979+00:00", "meta": {"OBJECT_NAME": "RESOURCESAT-2A", "OBJECT_ID": "2016-074A", "EPOCH": "2025-12-20T05:29:08.714112", "MEAN_MOTION": 14.21602641, "ECCENTRICITY": 0.00014027, "INCLINATION": 98.7755, "RA_OF_ASC_NODE": 64.0413, "ARG_OF_PERICENTER": 219.0234, "MEAN_ANOMALY": 141.0842, "EPHEMERIS_TYPE": 0, "CLASSIFICATION_TYPE": "U", "NORAD_CAT_ID": 41877, "ELEMENT_SET_NO": 999, "REV_AT_EPOCH": 46887, "BSTAR": 3.945974e-05, "MEAN_MOTION_DOT": 4.2e-07, "MEAN_MOTION_DDOT": 0}, "tle": {"line1": "1 41877U 16074A   25354.22857308  .00000042  00000+0  39460-4 0  9990", "line2": "2 41877  98.7755  64.0413 0001402 219.0234 141.0842 14.21602641468876"}}, "geometry": {"type": "Point", "coordinates": [-110.50646476702036, 29.79044867488357]}}, {"type": "Feature", "properties": {"norad_id": 41948, "name": "CARTOSAT-2D", "group": "resource", "lat": 38.73093091405019, "lon": 45.97316407006293, "alt_km": 505.6108839039807, "timestamp": "2025-12-20T14:38:01.615989+00:00", "meta": {"OBJECT_NAME": "CARTOSAT-2D", "OBJECT_ID": "2017-008A", "EPOCH": "2025-12-20T06:33:31.648608", "MEAN_MOTION": 15.19326795, "ECCENTRICITY": 0.0005364, "INCLINATION": 97.4386, "RA_OF_ASC_NODE": 51.6568, "ARG_OF_PERICENTER": 139.4841, "MEAN_ANOMALY": 220.6794, "EPHEMERIS_TYPE": 0, "CLASSIFICATION_TYPE": "U", "NORAD_CAT_ID": 41948, "ELEMENT_SET_NO": 999, "REV_AT_EPOCH": 49041, "BSTAR": 8.3261632e-05, "MEAN_MOTION_DOT": 1.691e-05, "MEAN_MOTION_DDOT": 0}, "tle": {"line1": "1 41948U 17008A   25354.27328297  .00001691  00000+0  83262-4 0  9992", "line2": "2 41948  97.4386  51.6568 0005364 139.4841 220.6794 15.19326795490410"}}, "geometry": {"type": "Point", "coordinates": [45.97316407006293, 38.73093091405019]}}, {"type": "Feature", "properties": {"norad_id": 42063, "name": "SENTINEL-2B", "group": "resource", "lat": 18.572042865836714, "lon": 64.04092460721557, "alt_km": 789.015687016672, "timestamp": "2025-12-20T14:38:01.616000+00:00", "meta": {"OBJECT_NAME": "SENTINEL-2B", "OBJECT_ID": "2017-013A", "EPOCH": "2025-12-20T06:09:16.559424", "MEAN_MOTION": 14.30813507, "ECCENTRICITY": 0.00011783, "INCLINATION": 98.5715, "RA_OF_ASC_NODE": 66.5974, "ARG_OF_PERICENTER": 93.6675, "MEAN_ANOMALY": 266.4643, "EPHEMERIS_TYPE": 0, "CLASSIFICATION_TYPE": "U", "NORAD_CAT_ID": 42063, "ELEMENT_SET_NO": 999, "REV_AT_EPOCH": 45905, "BSTAR": 5.8124692e-05, "MEAN_MOTION_DOT": 1.09e-06, "MEAN_MOTION_DDOT": 0}, "tle": {"line1": "1 42063U 17013A   25354.25644166  .00000109  00000+0  58125-4 0  9994", "line2": "2 42063  98.5715  66.5974 0001178  93.6675 266.4643 14.30813507459058"}}, "geometry": {"type": "Point", "coordinates": [64.04092460721557, 18.572042865836714]}}, {"type": "Feature", "properties": {"norad_id": 42767, "name": "CARTOSAT-2E", "group": "resource", "lat": -51.05453216731477, "lon": 61.418788172234365, "alt_km": 515.5793181345643, "timestamp": "2025-12-20T14:38:01.616009+00:00", "meta": {"OBJECT_NAME": "CARTOSAT-2E", "OBJECT_ID": "2017-036C", "EPOCH": "2025-12-20T05:22:35.691744", "MEAN_MOTION": 15.19266509, "ECCENTRICITY": 0.00024878, "INCLINATION": 97.4554, "RA_OF_ASC_NODE": 51.7135, "ARG_OF_PERICENTER": 201.0253, "MEAN_ANOMALY": 159.0879, "EPHEMERIS_TYPE": 0, "CLASSIFICATION_TYPE": "U", "NORAD_CAT_ID": 42767, "ELEMENT_SET_NO": 999, "REV_AT_EPOCH": 47097, "BSTAR": 8.8499096e-05, "MEAN_MOTION_DOT": 1.798e-05, "MEAN_MOTION_DDOT": 0}, "tle": {"line1": "1 42767U 17036C   25354.22402421  .00001798  00000+0  88499-4 0  9995", "line2": "2 42767  97.4554  51.7135 0002487 201.0253 159.0879 15.19266509470978"}}, "geometry": {"type": "Point", "coordinates": [61.418788172234365, -51.05453216731477]}}, {"type": "Feature", "properties": {"norad_id": 42920, "name": "FORMOSAT-5", "group": "resource", "lat": -47.69162455267583, "lon": -120.39516707776842, "alt_km": 725.1660496961404, "timestamp": "2025-12-20T14:38:01.616019+00:00", "meta": {"OBJECT_NAME": "FORMOSAT-5", "OBJECT_ID": "2017-049A", "EPOCH": "2025-12-20T03:39:08.028864", "MEAN_MOTION": 14.50764558, "ECCENTRICITY": 0.00098388, "INCLINATION": 98.2445, "RA_OF_ASC_NODE": 68.3226, "ARG_OF_PERICENTER": 276.342, "MEAN_ANOMALY": 83.6654, "EPHEMERIS_TYPE": 0, "CLASSIFICATION_TYPE": "U", "NORAD_CAT_ID": 42920, "ELEMENT_SET_NO": 999, "REV_AT_EPOCH": 44071, "BSTAR": 4.6909305e-05, "MEAN_MOTION_DOT": 1.41e-06, "MEAN_MOTION_DDOT": 0}, "tle": {"line1": "1 42920U 17049A   25354.15217626  .00000141  00000+0  46909-4 0  9994", "line2": "2 42920  98.2445  68.3226 0009838 276.3420  83.6654 14.50764558440713"}}, "geometry": {"type": "Point", "coordinates": [-120.39516707776842, -47.69162455267583]}}, {"type": "Feature", "properties": {"norad_id": 42969, "name": "SENTINEL-5P", "group": "resource", "lat": 78.79034668179519, "lon": 164.36696651335347, "alt_km": 818.8907036157152, "timestamp": "2025-12-20T14:38:01.616031+00:00", "meta": {"OBJECT_NAME": "SENTINEL-5P", "OBJECT_ID": "2017-064A", "EPOCH": "2025-12-20T02:20:13.366752", "MEAN_MOTION": 14.19519194, "ECCENTRICITY": 0.0001016, "INCLINATION": 98.7796, "RA_OF_ASC_NODE": 292.6165, "ARG_OF_PERICENTER": 90.4056, "MEAN_ANOMALY": 269.7237, "EPHEMERIS_TYPE": 0, "CLASSIFICATION_TYPE": "U", "NORAD_CAT_ID": 42969, "ELEMENT_SET_NO": 999, "REV_AT_EPOCH": 42415, "BSTAR": 4.0477719e-05, "MEAN_MOTION_DOT": 4.1e-07, "MEAN_MOTION_DDOT": 0}, "tle": {"line1": "1 42969U 17064A   25354.09737693  .00000041  00000+0  40478-4 0  9992", "line2": "2 42969  98.7796 292.6165 0001016  90.4056 269.7237 14.19519194424157"}}, "geometry": {"type": "Point", "coordinates": [164.36696651335347, 78.79034668179519]}}]}